{
  "type": "FeatureCollection",
  "features": [
    {
      "type": "Feature",
      "properties": {
        "norad_id": 31877,
        "name": "FENGYUN 1C DEB",
        "group": "fengyun-1c-debris",
        "lat": 5.781926905811912,
        "lon": -123.22012654321531,
        "alt_km": 586.3823170920004,
        "timestamp": "2025-12-11T18:59:46.358153+00:00",
        "meta_object_name": "FENGYUN 1C DEB",
        "meta_object_id": "1999-025CKC",
        "meta_epoch": "2025-12-10T03:49:37.380288",
        "meta_mean_motion": 15.01407414,
        "meta_eccentricity": 0.01044995,
        "meta_inclination": 99.0012,
        "meta_ra_of_asc_node": 53.9701,
        "meta_arg_of_pericenter": 287.3757,
        "meta_mean_anomaly": 71.6056,
        "meta_ephemeris_type": 0,
        "meta_classification_type": "U",
        "meta_norad_cat_id": 31877,
        "meta_element_set_no": 999,
        "meta_rev_at_epoch": 99003,
        "meta_bstar": 0.001174344,
        "meta_mean_motion_dot": 0.00016981,
        "meta_mean_motion_ddot": 0,
        "tle_line1": "1 31877U 99025CKC 25344.15946042  .00016981  00000+0  11743-2 0  9992",
        "tle_line2": "2 31877  99.0012  53.9701 0104499 287.3757  71.6056 15.01407414990033"
      },
      "geometry": {
        "type": "Point",
        "coordinates": [
          -123.22012654321531,
          5.781926905811912
        ]
      }
    },
    {
      "type": "Feature",
      "properties": {
        "norad_id": 31878,
        "name": "FENGYUN 1C DEB",
        "group": "fengyun-1c-debris",
        "lat": 80.23595422418383,
        "lon": -166.04006659927776,
        "alt_km": 656.6719165401628,
        "timestamp": "2025-12-11T18:59:46.358165+00:00",
        "meta_object_name": "FENGYUN 1C DEB",
        "meta_object_id": "1999-025CKD",
        "meta_epoch": "2025-12-03T00:27:41.548032",
        "meta_mean_motion": 14.85464766,
        "meta_eccentricity": 0.00842743,
        "meta_inclination": 99.4399,
        "meta_ra_of_asc_node": 258.7733,
        "meta_arg_of_pericenter": 269.6043,
        "meta_mean_anomaly": 89.551,
        "meta_ephemeris_type": 0,
        "meta_classification_type": "U",
        "meta_norad_cat_id": 31878,
        "meta_element_set_no": 999,
        "meta_rev_at_epoch": 97949,
        "meta_bstar": 0.0019397439,
        "meta_mean_motion_dot": 0.000178,
        "meta_mean_motion_ddot": 0,
        "tle_line1": "1 31878U 99025CKD 25337.01923088  .00017800  00000+0  19397-2 0  9999",
        "tle_line2": "2 31878  99.4399 258.7733 0084274 269.6043  89.5510 14.85464766979499"
      },
      "geometry": {
        "type": "Point",
        "coordinates": [
          -166.04006659927776,
          80.23595422418383
        ]
      }
    },
    {
      "type": "Feature",
      "properties": {
        "norad_id": 31879,
        "name": "FENGYUN 1C DEB",
        "group": "fengyun-1c-debris",
        "lat": 20.563555624457706,
        "lon": -139.5542149388615,
        "alt_km": 606.6600629870754,
        "timestamp": "2025-12-11T18:59:46.358175+00:00",
        "meta_object_name": "FENGYUN 1C DEB",
        "meta_object_id": "1999-025CKE",
        "meta_epoch": "2025-12-10T21:16:06.187008",
        "meta_mean_motion": 14.42895114,
        "meta_eccentricity": 0.020987,
        "meta_inclination": 99.7075,
        "meta_ra_of_asc_node": 223.0971,
        "meta_arg_of_pericenter": 42.1081,
        "meta_mean_anomaly": 319.6018,
        "meta_ephemeris_type": 0,
        "meta_classification_type": "U",
        "meta_norad_cat_id": 31879,
        "meta_element_set_no": 999,
        "meta_rev_at_epoch": 63183,
        "meta_bstar": 0.00046143,
        "meta_mean_motion_dot": 1.946e-05,
        "meta_mean_motion_ddot": 0,
        "tle_line1": "1 31879U 99025CKE 25344.88618272  .00001946  00000+0  46143-3 0  9993",
        "tle_line2": "2 31879  99.7075 223.0971 0209870  42.1081 319.6018 14.42895114631831"
      },
      "geometry": {
        "type": "Point",
        "coordinates": [
          -139.5542149388615,
          20.563555624457706
        ]
      }
    },
    {
      "type": "Feature",
      "properties": {
        "norad_id": 31880,
        "name": "FENGYUN 1C DEB",
        "group": "fengyun-1c-debris",
        "lat": 62.74602093421101,
        "lon": -11.380864173406763,
        "alt_km": 851.1167840841899,
        "timestamp": "2025-12-11T18:59:46.358187+00:00",
        "meta_object_name": "FENGYUN 1C DEB",
        "meta_object_id": "1999-025CKF",
        "meta_epoch": "2025-12-07T17:39:23.204736",
        "meta_mean_motion": 13.89389039,
        "meta_eccentricity": 0.01282018,
        "meta_inclination": 100.0287,
        "meta_ra_of_asc_node": 144.1639,
        "meta_arg_of_pericenter": 164.9392,
        "meta_mean_anomaly": 195.5637,
        "meta_ephemeris_type": 0,
        "meta_classification_type": "U",
        "meta_norad_cat_id": 31880,
        "meta_element_set_no": 999,
        "meta_rev_at_epoch": 62910,
        "meta_bstar": 0.00081356926,
        "meta_mean_motion_dot": 1.01e-05,
        "meta_mean_motion_ddot": 0,
        "tle_line1": "1 31880U 99025CKF 25341.73568524  .00001010  00000+0  81357-3 0  9998",
        "tle_line2": "2 31880 100.0287 144.1639 0128201 164.9392 195.5637 13.89389039629103"
      },
      "geometry": {
        "type": "Point",
        "coordinates": [
          -11.380864173406763,
          62.74602093421101
        ]
      }
    },
    {
      "type": "Feature",
      "properties": {
        "norad_id": 31882,
        "name": "FENGYUN 1C DEB",
        "group": "fengyun-1c-debris",
        "lat": -25.7450270728931,
        "lon": -87.3343201090674,
        "alt_km": 861.6185589682727,
        "timestamp": "2025-12-11T18:59:46.358197+00:00",
        "meta_object_name": "FENGYUN 1C DEB",
        "meta_object_id": "1999-025CKH",
        "meta_epoch": "2025-12-04T12:04:11.131104",
        "meta_mean_motion": 14.12940251,
        "meta_eccentricity": 0.0035445,
        "meta_inclination": 98.9162,
        "meta_ra_of_asc_node": 261.0675,
        "meta_arg_of_pericenter": 248.9848,
        "meta_mean_anomaly": 110.7531,
        "meta_ephemeris_type": 0,
        "meta_classification_type": "U",
        "meta_norad_cat_id": 31882,
        "meta_element_set_no": 999,
        "meta_rev_at_epoch": 58520,
        "meta_bstar": 0.0011941,
        "meta_mean_motion_dot": 2.193e-05,
        "meta_mean_motion_ddot": 0,
        "tle_line1": "1 31882U 99025CKH 25338.50290661  .00002193  00000+0  11941-2 0  9999",
        "tle_line2": "2 31882  98.9162 261.0675 0035445 248.9848 110.7531 14.12940251585207"
      },
      "geometry": {
        "type": "Point",
        "coordinates": [
          -87.3343201090674,
          -25.7450270728931
        ]
      }
    },
    {
      "type": "Feature",
      "properties": {
        "norad_id": 31883,
        "name": "FENGYUN 1C DEB",
        "group": "fengyun-1c-debris",
        "lat": -28.809033180756266,
        "lon": 77.30585321428214,
        "alt_km": 738.2859159842856,
        "timestamp": "2025-12-11T18:59:46.358207+00:00",
        "meta_object_name": "FENGYUN 1C DEB",
        "meta_object_id": "1999-025CKJ",
        "meta_epoch": "2025-12-11T00:03:34.221024",
        "meta_mean_motion": 14.67707754,
        "meta_eccentricity": 0.01251941,
        "meta_inclination": 99.0277,
        "meta_ra_of_asc_node": 261.4527,
        "meta_arg_of_pericenter": 74.4685,
        "meta_mean_anomaly": 287.0298,
        "meta_ephemeris_type": 0,
        "meta_classification_type": "U",
        "meta_norad_cat_id": 31883,
        "meta_element_set_no": 999,
        "meta_rev_at_epoch": 97953,
        "meta_bstar": 0.00094546833,
        "meta_mean_motion_dot": 5.999e-05,
        "meta_mean_motion_ddot": 0,
        "tle_line1": "1 31883U 99025CKJ 25345.00247941  .00005999  00000+0  94547-3 0  9997",
        "tle_line2": "2 31883  99.0277 261.4527 0125194  74.4685 287.0298 14.67707754979539"
      },
      "geometry": {
        "type": "Point",
        "coordinates": [
          77.30585321428214,
          -28.809033180756266
        ]
      }
    },
    {
      "type": "Feature",
      "properties": {
        "norad_id": 31887,
        "name": "FENGYUN 1C DEB",
        "group": "fengyun-1c-debris",
        "lat": 22.315671442362657,
        "lon": 33.299060684049834,
        "alt_km": 683.517468644417,
        "timestamp": "2025-12-11T18:59:46.358217+00:00",
        "meta_object_name": "FENGYUN 1C DEB",
        "meta_object_id": "1999-025CKN",
        "meta_epoch": "2025-12-10T21:28:42.509280",
        "meta_mean_motion": 14.57764662,
        "meta_eccentricity": 0.0024132,
        "meta_inclination": 99.534,
        "meta_ra_of_asc_node": 36.2286,
        "meta_arg_of_pericenter": 10.3221,
        "meta_mean_anomaly": 349.8464,
        "meta_ephemeris_type": 0,
        "meta_classification_type": "U",
        "meta_norad_cat_id": 31887,
        "meta_element_set_no": 999,
        "meta_rev_at_epoch": 96581,
        "meta_bstar": 0.0013744,
        "meta_mean_motion_dot": 6.253e-05,
        "meta_mean_motion_ddot": 0,
        "tle_line1": "1 31887U 99025CKN 25344.89493645  .00006253  00000+0  13744-2 0  9994",
        "tle_line2": "2 31887  99.5340  36.2286 0024132  10.3221 349.8464 14.57764662965812"
      },
      "geometry": {
        "type": "Point",
        "coordinates": [
          33.299060684049834,
          22.315671442362657
        ]
      }
    }
  ]
}